{
  "type": "FeatureCollection",
  "features": [
    {
      "type": "Feature",
      "properties": {
        "norad_id": 37836,
        "name": "EUTELSAT 16A",
        "group": "eutelsat",
        "lat": 0.028332074206976823,
        "lon": 150.25320103462101,
        "alt_km": 35794.678539063665,
        "timestamp": "2025-12-07T03:52:32.142255+00:00",
        "meta_object_name": "EUTELSAT 16A",
        "meta_object_id": "2011-057A",
        "meta_epoch": "2025-12-06T12:01:36.495840",
        "meta_mean_motion": 1.00269844,
        "meta_eccentricity": 0.00058851,
        "meta_inclination": 0.058,
        "meta_ra_of_asc_node": 354.5954,
        "meta_arg_of_pericenter": 264.711,
        "meta_mean_anomaly": 12.6416,
        "meta_ephemeris_type": 0,
        "meta_classification_type": "U",
        "meta_norad_cat_id": 37836,
        "meta_element_set_no": 999,
        "meta_rev_at_epoch": 539,
        "meta_bstar": 0,
        "meta_mean_motion_dot": 1.11e-06,
        "meta_mean_motion_ddot": 0,
        "tle_line1": "1 37836U 11057A   25340.50111685  .00000111  00000+0  00000+0 0  9993",
        "tle_line2": "2 37836   0.0580 354.5954 0005885 264.7110  12.6416  1.00269844  5395"
      },
      "geometry": {
        "type": "Point",
        "coordinates": [
          150.25320103462101,
          0.028332074206976823
        ]
      }
    },
    {
      "type": "Feature",
      "properties": {
        "norad_id": 38992,
        "name": "EUTELSAT 21B",
        "group": "eutelsat",
        "lat": 0.020552457744555212,
        "lon": 155.87915311937795,
        "alt_km": 35790.72340320167,
        "timestamp": "2025-12-07T03:52:32.142267+00:00",
        "meta_object_name": "EUTELSAT 21B",
        "meta_object_id": "2012-062B",
        "meta_epoch": "2025-12-06T12:03:21.329280",
        "meta_mean_motion": 1.00269729,
        "meta_eccentricity": 0.00031912,
        "meta_inclination": 0.0664,
        "meta_ra_of_asc_node": 352.312,
        "meta_arg_of_pericenter": 271.4935,
        "meta_mean_anomaly": 14.1776,
        "meta_ephemeris_type": 0,
        "meta_classification_type": "U",
        "meta_norad_cat_id": 38992,
        "meta_element_set_no": 999,
        "meta_rev_at_epoch": 4789,
        "meta_bstar": 0,
        "meta_mean_motion_dot": 1.37e-06,
        "meta_mean_motion_ddot": 0,
        "tle_line1": "1 38992U 12062B   25340.50233020  .00000137  00000+0  00000+0 0  9990",
        "tle_line2": "2 38992   0.0664 352.3120 0003191 271.4935  14.1776  1.00269729 47890"
      },
      "geometry": {
        "type": "Point",
        "coordinates": [
          155.87915311937795,
          0.020552457744555212
        ]
      }
    },
    {
      "type": "Feature",
      "properties": {
        "norad_id": 39020,
        "name": "EUTELSAT 70B",
        "group": "eutelsat",
        "lat": -0.03350519449455512,
        "lon": -155.2093549319635,
        "alt_km": 35771.94920895254,
        "timestamp": "2025-12-07T03:52:32.142280+00:00",
        "meta_object_name": "EUTELSAT 70B",
        "meta_object_id": "2012-069A",
        "meta_epoch": "2025-12-06T12:17:19.989888",
        "meta_mean_motion": 1.00271902,
        "meta_eccentricity": 0.00043012,
        "meta_inclination": 0.064,
        "meta_ra_of_asc_node": 8.8131,
        "meta_arg_of_pericenter": 235.187,
        "meta_mean_anomaly": 86.3898,
        "meta_ephemeris_type": 0,
        "meta_classification_type": "U",
        "meta_norad_cat_id": 39020,
        "meta_element_set_no": 999,
        "meta_rev_at_epoch": 4757,
        "meta_bstar": 0,
        "meta_mean_motion_dot": -3.7e-07,
        "meta_mean_motion_ddot": 0,
        "tle_line1": "1 39020U 12069A   25340.51203692 -.00000037  00000+0  00000+0 0  9993",
        "tle_line2": "2 39020   0.0640   8.8131 0004301 235.1870  86.3898  1.00271902 47578"
      },
      "geometry": {
        "type": "Point",
        "coordinates": [
          -155.2093549319635,
          -0.03350519449455512
        ]
      }
    },
    {
      "type": "Feature",
      "properties": {
        "norad_id": 39122,
        "name": "EUTELSAT 117 WEST A",
        "group": "eutelsat",
        "lat": 0.02903253307324951,
        "lon": 17.548365111901745,
        "alt_km": 35793.60796965548,
        "timestamp": "2025-12-07T03:52:32.142293+00:00",
        "meta_object_name": "EUTELSAT 117 WEST A",
        "meta_object_id": "2013-012A",
        "meta_epoch": "2025-12-06T11:23:55.104576",
        "meta_mean_motion": 1.00269906,
        "meta_eccentricity": 0.00031615,
        "meta_inclination": 0.0156,
        "meta_ra_of_asc_node": 325.4379,
        "meta_arg_of_pericenter": 290.4189,
        "meta_mean_anomaly": 233.8432,
        "meta_ephemeris_type": 0,
        "meta_classification_type": "U",
        "meta_norad_cat_id": 39122,
        "meta_element_set_no": 999,
        "meta_rev_at_epoch": 4650,
        "meta_bstar": 0,
        "meta_mean_motion_dot": -6e-08,
        "meta_mean_motion_ddot": 0,
        "tle_line1": "1 39122U 13012A   25340.47494334 -.00000006  00000+0  00000+0 0  9991",
        "tle_line2": "2 39122   0.0156 325.4379 0003161 290.4189 233.8432  1.00269906 46501"
      },
      "geometry": {
        "type": "Point",
        "coordinates": [
          17.548365111901745,
          0.02903253307324951
        ]
      }
    },
    {
      "type": "Feature",
      "properties": {
        "norad_id": 39163,
        "name": "EUTELSAT 7B",
        "group": "eutelsat",
        "lat": 0.05812437718459739,
        "lon": 141.29204078925798,
        "alt_km": 35804.82933233565,
        "timestamp": "2025-12-07T03:52:32.142305+00:00",
        "meta_object_name": "EUTELSAT 7B",
        "meta_object_id": "2013-022A",
        "meta_epoch": "2025-12-06T10:19:38.595648",
        "meta_mean_motion": 1.00270399,
        "meta_eccentricity": 0.00044364,
        "meta_inclination": 0.0687,
        "meta_ra_of_asc_node": 7.6714,
        "meta_arg_of_pericenter": 304.484,
        "meta_mean_anomaly": 285.2134,
        "meta_ephemeris_type": 0,
        "meta_classification_type": "U",
        "meta_norad_cat_id": 39163,
        "meta_element_set_no": 999,
        "meta_rev_at_epoch": 4602,
        "meta_bstar": 0,
        "meta_mean_motion_dot": 5.5e-07,
        "meta_mean_motion_ddot": 0,
        "tle_line1": "1 39163U 13022A   25340.43030782  .00000055  00000+0  00000+0 0  9999",
        "tle_line2": "2 39163   0.0687   7.6714 0004436 304.4840 285.2134  1.00270399 46028"
      },
      "geometry": {
        "type": "Point",
        "coordinates": [
          141.29204078925798,
          0.05812437718459739
        ]
      }
    },
    {
      "type": "Feature",
      "properties": {
        "norad_id": 39612,
        "name": "EXPRESS-AT1",
        "group": "eutelsat",
        "lat": -0.029083762727895916,
        "lon": -169.68398809291702,
        "alt_km": 35783.73072415053,
        "timestamp": "2025-12-07T03:52:32.142318+00:00",
        "meta_object_name": "EXPRESS-AT1",
        "meta_object_id": "2014-010A",
        "meta_epoch": "2025-12-06T12:13:12.884160",
        "meta_mean_motion": 1.00271588,
        "meta_eccentricity": 5.692e-05,
        "meta_inclination": 0.0167,
        "meta_ra_of_asc_node": 303.0576,
        "meta_arg_of_pericenter": 237.1051,
        "meta_mean_anomaly": 134.6883,
        "meta_ephemeris_type": 0,
        "meta_classification_type": "U",
        "meta_norad_cat_id": 39612,
        "meta_element_set_no": 999,
        "meta_rev_at_epoch": 4288,
        "meta_bstar": 0,
        "meta_mean_motion_dot": 8.6e-07,
        "meta_mean_motion_ddot": 0,
        "tle_line1": "1 39612U 14010A   25340.50917690  .00000086  00000+0  00000+0 0  9990",
        "tle_line2": "2 39612   0.0167 303.0576 0000569 237.1051 134.6883  1.00271588 42887"
      },
      "geometry": {
        "type": "Point",
        "coordinates": [
          -169.68398809291702,
          -0.029083762727895916
        ]
      }
    },
    {
      "type": "Feature",
      "properties": {
        "norad_id": 39613,
        "name": "EXPRESS-AT2",
        "group": "eutelsat",
        "lat": -0.0408072615729493,
        "lon": -85.83952090307051,
        "alt_km": 35781.18360986026,
        "timestamp": "2025-12-07T03:52:32.142330+00:00",
        "meta_object_name": "EXPRESS-AT2",
        "meta_object_id": "2014-010B",
        "meta_epoch": "2025-12-06T10:54:27.925632",
        "meta_mean_motion": 1.00269336,
        "meta_eccentricity": 0.00013562,
        "meta_inclination": 0.0189,
        "meta_ra_of_asc_node": 349.448,
        "meta_arg_of_pericenter": 293.6109,
        "meta_mean_anomaly": 95.9052,
        "meta_ephemeris_type": 0,
        "meta_classification_type": "U",
        "meta_norad_cat_id": 39613,
        "meta_element_set_no": 999,
        "meta_rev_at_epoch": 4256,
        "meta_bstar": 0,
        "meta_mean_motion_dot": 0,
        "meta_mean_motion_ddot": 0,
        "tle_line1": "1 39613U 14010B   25340.45448988  .00000000  00000+0  00000+0 0  9990",
        "tle_line2": "2 39613   0.0189 349.4480 0001356 293.6109  95.9052  1.00269336 42566"
      },
      "geometry": {
        "type": "Point",
        "coordinates": [
          -85.83952090307051,
          -0.0408072615729493
        ]
      }
    }
  ]
}